{"type": "FeatureCollection", "features": [ {"type": "Feature", "properties": {"norad_id": 30385, "name": "FENGYUN 1C DEB", "group": "fengyun-1c-debris", "lat": 5.490644087874633, "lon": -179.8848635560499, "alt_km": 830.8075656669826, "timestamp": "2025-12-04T23:34:05.998657+00:00", "meta": {"OBJECT_NAME": "FENGYUN 1C DEB", "OBJECT_ID": "1999-025ACY", "EPOCH": "2025-12-04T14:58:34.000032", "MEAN_MOTION": 14.3876091, "ECCENTRICITY": 0.0124947, "INCLINATION": 99.0826, "RA_OF_ASC_NODE": 358.8553, "ARG_OF_PERICENTER": 313.5819, "MEAN_ANOMALY": 168.43, "EPHEMERIS_TYPE": 0, "CLASSIFICATION_TYPE": "U", "NORAD_CAT_ID": 30385, "ELEMENT_SET_NO": 999, "REV_AT_EPOCH": 98652, "BSTAR": 0.00056468, "MEAN_MOTION_DOT": 1.846e-05, "MEAN_MOTION_DDOT": 0}, "tle": {"line1": "1 30385U 99025ACY 25338.62400463  .00001846  00000+0  56468-3 0  9990", "line2": "2 30385  99.0826 358.8553 0124947 313.5819 168.4300 14.38760910986520"}}, "geometry": {"type": "Point", "coordinates": [-179.8848635560499, 5.490644087874633]}}, {"type": "Feature", "properties": {"norad_id": 30386, "name": "FENGYUN 1C DEB", "group": "fengyun-1c-debris", "lat": 56.78702852447418, "lon": -138.33555866432377, "alt_km": 1147.4072117665473, "timestamp": "2025-12-04T23:34:05.998668+00:00", "meta": {"OBJECT_NAME": "FENGYUN 1C DEB", "OBJECT_ID": "1999-025ACZ", "EPOCH": "2025-12-04T16:28:25.804128", "MEAN_MOTION": 13.5554009, "ECCENTRICITY": 0.030345, "INCLINATION": 98.6903, "RA_OF_ASC_NODE": 234.9127, "ARG_OF_PERICENTER": 176.783, "MEAN_ANOMALY": 242.4235, "EPHEMERIS_TYPE": 0, "CLASSIFICATION_TYPE": "U", "NORAD_CAT_ID": 30386, "ELEMENT_SET_NO": 999, "REV_AT_EPOCH": 92720, "BSTAR": 0.00216, "MEAN_MOTION_DOT": 1.98e-05, "MEAN_MOTION_DDOT": 0}, "tle": {"line1": "1 30386U 99025ACZ 25338.68640977  .00001980  00000+0  21600-2 0  9991", "line2": "2 30386  98.6903 234.9127 0303450 176.7830 242.4235 13.55540090927206"}}, "geometry": {"type": "Point", "coordinates": [-138.33555866432377, 56.78702852447418]}}, {"type": "Feature", "properties": {"norad_id": 30387, "name": "FENGYUN 1C DEB", "group": "fengyun-1c-debris", "lat": -56.96235539946873, "lon": 7.830724027132052, "alt_km": 849.9819141896223, "timestamp": "2025-12-04T23:34:05.998678+00:00", "meta": {"OBJECT_NAME": "FENGYUN 1C DEB", "OBJECT_ID": "1999-025ADA", "EPOCH": "2025-12-03T12:54:51.143616", "MEAN_MOTION": 14.15037786, "ECCENTRICITY": 0.0001174, "INCLINATION": 98.6571, "RA_OF_ASC_NODE": 352.8816, "ARG_OF_PERICENTER": 100.1454, "MEAN_ANOMALY": 50.5263, "EPHEMERIS_TYPE": 0, "CLASSIFICATION_TYPE": "U", "NORAD_CAT_ID": 30387, "ELEMENT_SET_NO": 999, "REV_AT_EPOCH": 97194, "BSTAR": 0.00037543966, "MEAN_MOTION_DOT": 6.85e-06, "MEAN_MOTION_DDOT": 0}, "tle": {"line1": "1 30387U 99025ADA 25337.53809194  .00000685  00000+0  37544-3 0  9999", "line2": "2 30387  98.6571 352.8816 0001174 100.1454  50.5263 14.15037786971943"}}, "geometry": {"type": "Point", "coordinates": [7.830724027132052, -56.96235539946873]}}, {"type": "Feature", "properties": {"norad_id": 30388, "name": "FENGYUN 1C DEB", "group": "fengyun-1c-debris", "lat": 79.95980679873101, "lon": -58.86579648399743, "alt_km": 658.578532541399, "timestamp": "2025-12-04T23:34:05.998688+00:00", "meta": {"OBJECT_NAME": "FENGYUN 1C DEB", "OBJECT_ID": "1999-025ADB", "EPOCH": "2025-12-04T15:18:21.680352", "MEAN_MOTION": 14.19740071, "ECCENTRICITY": 0.0222379, "INCLINATION": 98.5999, "RA_OF_ASC_NODE": 359.5295, "ARG_OF_PERICENTER": 86.1521, "MEAN_ANOMALY": 40.1249, "EPHEMERIS_TYPE": 0, "CLASSIFICATION_TYPE": "U", "NORAD_CAT_ID": 30388, "ELEMENT_SET_NO": 999, "REV_AT_EPOCH": 97317, "BSTAR": 0.0007493, "MEAN_MOTION_DOT": 1.988e-05, "MEAN_MOTION_DDOT": 0}, "tle": {"line1": "1 30388U 99025ADB 25338.63775093  .00001988  00000+0  74930-3 0  9999", "line2": "2 30388  98.5999 359.5295 0222379  86.1521  40.1249 14.19740071973170"}}, "geometry": {"type": "Point", "coordinates": [-58.86579648399743, 79.95980679873101]}}, {"type": "Feature", "properties": {"norad_id": 30389, "name": "FENGYUN 1C DEB", "group": "fengyun-1c-debris", "lat": 5.209384400612033, "lon": -119.26386657775099, "alt_km": 744.1533401806828, "timestamp": "2025-12-04T23:34:05.998698+00:00", "meta": {"OBJECT_NAME": "FENGYUN 1C DEB", "OBJECT_ID": "1999-025ADC", "EPOCH": "2025-12-04T04:35:49.951104", "MEAN_MOTION": 14.43836874, "ECCENTRICITY": 0.00137635, "INCLINATION": 98.8395, "RA_OF_ASC_NODE": 59.1026, "ARG_OF_PERICENTER": 243.9894, "MEAN_ANOMALY": 144.4012, "EPHEMERIS_TYPE": 0, "CLASSIFICATION_TYPE": "U", "NORAD_CAT_ID": 30389, "ELEMENT_SET_NO": 999, "REV_AT_EPOCH": 97663, "BSTAR": 0.0054281724, "MEAN_MOTION_DOT": 0.00018515, "MEAN_MOTION_DDOT": 0}, "tle": {"line1": "1 30389U 99025ADC 25338.19155036  .00018515  00000+0  54282-2 0  9991", "line2": "2 30389  98.8395  59.1026 0013763 243.9894 144.4012 14.43836874976634"}}, "geometry": {"type": "Point", "coordinates": [-119.26386657775099, 5.209384400612033]}}, {"type": "Feature", "properties": {"norad_id": 30390, "name": "FENGYUN 1C DEB", "group": "fengyun-1c-debris", "lat": 53.97936636011232, "lon": 49.75238985163817, "alt_km": 820.1907184473139, "timestamp": "2025-12-04T23:34:05.998709+00:00", "meta": {"OBJECT_NAME": "FENGYUN 1C DEB", "OBJECT_ID": "1999-025ADD", "EPOCH": "2025-12-04T05:05:24.491328", "MEAN_MOTION": 14.29600535, "ECCENTRICITY": 0.0068168, "INCLINATION": 98.8238, "RA_OF_ASC_NODE": 61.3082, "ARG_OF_PERICENTER": 188.9136, "MEAN_ANOMALY": 226.4235, "EPHEMERIS_TYPE": 0, "CLASSIFICATION_TYPE": "U", "NORAD_CAT_ID": 30390, "ELEMENT_SET_NO": 999, "REV_AT_EPOCH": 97262, "BSTAR": 0.0044949, "MEAN_MOTION_DOT": 0.00011772, "MEAN_MOTION_DDOT": 0}, "tle": {"line1": "1 30390U 99025ADD 25338.21208902  .00011772  00000+0  44949-2 0  9994", "line2": "2 30390  98.8238  61.3082 0068168 188.9136 226.4235 14.29600535972625"}}, "geometry": {"type": "Point", "coordinates": [49.75238985163817, 53.97936636011232]}}, {"type": "Feature", "properties": {"norad_id": 30391, "name": "FENGYUN 1C DEB", "group": "fengyun-1c-debris", "lat": -14.164693572131563, "lon": 27.32968513708581, "alt_km": 817.917787154719, "timestamp": "2025-12-04T23:34:05.998722+00:00", "meta": {"OBJECT_NAME": "FENGYUN 1C DEB", "OBJECT_ID": "1999-025ADE", "EPOCH": "2025-12-04T01:53:58.713792", "MEAN_MOTION": 14.16176465, "ECCENTRICITY": 0.00711186, "INCLINATION": 98.782, "RA_OF_ASC_NODE": 24.2035, "ARG_OF_PERICENTER": 287.0505, "MEAN_ANOMALY": 137.5795, "EPHEMERIS_TYPE": 0, "CLASSIFICATION_TYPE": "U", "NORAD_CAT_ID": 30391, "ELEMENT_SET_NO": 999, "REV_AT_EPOCH": 96756, "BSTAR": 0.0021891479, "MEAN_MOTION_DOT": 4.397e-05, "MEAN_MOTION_DDOT": 0}, "tle": {"line1": "1 30391U 99025ADE 25338.07915178  .00004397  00000+0  21891-2 0  9995", "line2": "2 30391  98.7820  24.2035 0071118 287.0505 137.5795 14.16176465967564"}}, "geometry": {"type": "Point", "coordinates": [27.32968513708581, -14.164693572131563]}}, {"type": "Feature", "properties": {"norad_id": 30392, "name": "FENGYUN 1C DEB", "group": "fengyun-1c-debris", "lat": -38.77529706672913, "lon": 170.64034690616705, "alt_km": 997.5257388436758, "timestamp": "2025-12-04T23:34:05.998732+00:00", "meta": {"OBJECT_NAME": "FENGYUN 1C DEB", "OBJECT_ID": "1999-025ADF", "EPOCH": "2025-12-03T21:29:46.055616", "MEAN_MOTION": 14.07418179, "ECCENTRICITY": 0.01814973, "INCLINATION": 98.7862, "RA_OF_ASC_NODE": 356.7203, "ARG_OF_PERICENTER": 21.8061, "MEAN_ANOMALY": 97.0369, "EPHEMERIS_TYPE": 0, "CLASSIFICATION_TYPE": "U", "NORAD_CAT_ID": 30392, "ELEMENT_SET_NO": 999, "REV_AT_EPOCH": 96546, "BSTAR": 0.0010499847, "MEAN_MOTION_DOT": 2.01e-05, "MEAN_MOTION_DDOT": 0}, "tle": {"line1": "1 30392U 99025ADF 25337.89567194  .00002010  00000+0  10500-2 0  9991", "line2": "2 30392  98.7862 356.7203 0181497  21.8061  97.0369 14.07418179965469"}}, "geometry": {"type": "Point", "coordinates": [170.64034690616705, -38.77529706672913]}}, {"type": "Feature", "properties": {"norad_id": 30393, "name": "FENGYUN 1C DEB", "group": "fengyun-1c-debris", "lat": -7.7536234237881665, "lon": -144.49097482290512, "alt_km": 904.1064908685294, "timestamp": "2025-12-04T23:34:05.998742+00:00", "meta": {"OBJECT_NAME": "FENGYUN 1C DEB", "OBJECT_ID": "1999-025ADG", "EPOCH": "2025-12-04T16:22:48.877824", "MEAN_MOTION": 13.98974146, "ECCENTRICITY": 0.0069565, "INCLINATION": 99.1648, "RA_OF_ASC_NODE": 36.4691, "ARG_OF_PERICENTER": 282.2783, "MEAN_ANOMALY": 198.6843, "EPHEMERIS_TYPE": 0, "CLASSIFICATION_TYPE": "U", "NORAD_CAT_ID": 30393, "ELEMENT_SET_NO": 999, "REV_AT_EPOCH": 96217, "BSTAR": 0.00039331, "MEAN_MOTION_DOT": 5.34e-06, "MEAN_MOTION_DDOT": 0}, "tle": {"line1": "1 30393U 99025ADG 25338.68251016  .00000534  00000+0  39331-3 0  9996", "line2": "2 30393  99.1648  36.4691 0069565 282.2783 198.6843 13.98974146962175"}}, "geometry": {"type": "Point", "coordinates": [-144.49097482290512, -7.7536234237881665]}}, {"type": "Feature", "properties": {"norad_id": 30394, "name": "FENGYUN 1C DEB", "group": "fengyun-1c-debris", "lat": -66.22162968082255, "lon": 164.8881343754481, "alt_km": 953.5797712209887, "timestamp": "2025-12-04T23:34:05.998752+00:00", "meta": {"OBJECT_NAME": "FENGYUN 1C DEB", "OBJECT_ID": "1999-025ADH", "EPOCH": "2025-12-04T16:04:42.358080", "MEAN_MOTION": 13.95775958, "ECCENTRICITY": 0.008995, "INCLINATION": 99.4354, "RA_OF_ASC_NODE": 6.742, "ARG_OF_PERICENTER": 123.0882, "MEAN_ANOMALY": 356.8115, "EPHEMERIS_TYPE": 0, "CLASSIFICATION_TYPE": "U", "NORAD_CAT_ID": 30394, "ELEMENT_SET_NO": 999, "REV_AT_EPOCH": 95991, "BSTAR": 0.00057305, "MEAN_MOTION_DOT": 7.63e-06, "MEAN_MOTION_DDOT": 0}, "tle": {"line1": "1 30394U 99025ADH 25338.66993470  .00000763  00000+0  57305-3 0  9997", "line2": "2 30394  99.4354   6.7420 0089950 123.0882 356.8115 13.95775958959910"}}, "geometry": {"type": "Point", "coordinates": [164.8881343754481, -66.22162968082255]}}]}